{"type":"Feature","properties":{"name":"Shymkent","osm":"relation/3389772","admin_level":4},"geometry":{"type":"Polygon","coordinates":[[[69.90892,42.27814],[69.91112,42.2817],[69.91513,42.27941],[69.91458,42.27816],[69.91832,42.27692],[69.92007,42.27688],[69.92256,42.27963],[69.92963,42.27685],[69.93211,42.27891],[69.93205,42.28204],[69.93572,42.28525],[69.92997,42.28784],[69.92925,42.2901],[69.92786,42.29027],[69.9263,42.29217],[69.9264,42.29357],[69.92296,42.29469],[69.9235,42.29621],[69.91656,42.29869],[69.91419,42.29832],[69.91193,42.29995],[69.90839,42.30021],[69.90022,42.3034],[69.9013,42.30521],[69.89687,42.30713],[69.89431,42.30974],[69.89378,42.31159],[69.8857,42.31133],[69.88463,42.31245],[69.88744,42.31463],[69.88787,42.31602],[69.88132,42.31746],[69.88154,42.31943],[69.88866,42.31862],[69.89026,42.32052],[69.88279,42.32209],[69.87598,42.325],[69.87131,42.33229],[69.852,42.33713],[69.84542,42.33714],[69.84046,42.33412],[69.83739,42.33447],[69.83256,42.33571],[69.82768,42.33935],[69.82732,42.34068],[69.82398,42.34019],[69.81904,42.34371],[69.81972,42.3452],[69.81793,42.34549],[69.81802,42.34661],[69.81638,42.34616],[69.81381,42.34741],[69.81779,42.35012],[69.81442,42.35158],[69.81796,42.35565],[69.80638,42.36101],[69.80178,42.35996],[69.80244,42.36364],[69.80048,42.36542],[69.79761,42.3667],[69.79286,42.36553],[69.78955,42.37112],[69.7783,42.37644],[69.77913,42.38456],[69.77873,42.38953],[69.77794,42.39022],[69.77129,42.39063],[69.76796,42.39415],[69.76612,42.39389],[69.76368,42.3962],[69.76005,42.39716],[69.75741,42.40002],[69.75252,42.40281],[69.74485,42.4057],[69.74233,42.40803],[69.73646,42.41021],[69.73122,42.41406],[69.72421,42.41647],[69.73072,42.42641],[69.72591,42.43041],[69.72158,42.42915],[69.72111,42.4337],[69.718,42.43598],[69.71822,42.43731],[69.71684,42.43836],[69.70301,42.44141],[69.66944,42.44543],[69.59232,42.45834],[69.55413,42.46802],[69.53114,42.47854],[69.51878,42.47841],[69.51161,42.47687],[69.50843,42.4772],[69.50621,42.47859],[69.5025,42.47819],[69.49828,42.47944],[69.49435,42.47898],[69.49437,42.47762],[69.48816,42.47679],[69.47462,42.47919],[69.46225,42.47849],[69.46341,42.47451],[69.46272,42.47297],[69.45021,42.4662],[69.45183,42.46304],[69.45699,42.46198],[69.45768,42.45959],[69.45675,42.45825],[69.45788,42.45737],[69.45781,42.45485],[69.46114,42.45367],[69.46385,42.45147],[69.46277,42.44685],[69.46431,42.44447],[69.45822,42.44294],[69.45631,42.44421],[69.4483,42.43995],[69.43488,42.43572],[69.43055,42.43254],[69.44075,42.42343],[69.4392,42.42182],[69.4399,42.42062],[69.43645,42.41862],[69.43384,42.41905],[69.43338,42.41809],[69.43089,42.4197],[69.42995,42.41739],[69.43108,42.41684],[69.43108,42.41499],[69.42976,42.41524],[69.43014,42.41621],[69.42918,42.41626],[69.4291,42.41718],[69.4274,42.41676],[69.42537,42.41823],[69.42227,42.41696],[69.41808,42.42051],[69.41586,42.41865],[69.41388,42.41932],[69.41357,42.41853],[69.40689,42.42056],[69.40309,42.42057],[69.39928,42.41715],[69.39638,42.41594],[69.39469,42.41663],[69.39434,42.41511],[69.392,42.41473],[69.39109,42.41329],[69.38916,42.4134],[69.38683,42.41124],[69.39137,42.40899],[69.38708,42.40844],[69.38567,42.40609],[69.3889,42.39933],[69.38602,42.39921],[69.39062,42.39821],[69.38049,42.3831],[69.37084,42.38556],[69.36998,42.38398],[69.37065,42.3816],[69.36755,42.38275],[69.36706,42.3822],[69.36963,42.38072],[69.36863,42.3795],[69.36513,42.37879],[69.36416,42.37697],[69.35348,42.37784],[69.32571,42.37569],[69.32394,42.37395],[69.32078,42.37302],[69.32031,42.37136],[69.31241,42.3677],[69.31168,42.36627],[69.30308,42.36367],[69.30185,42.35738],[69.30233,42.35622],[69.30475,42.3556],[69.30944,42.35572],[69.30895,42.35464],[69.31289,42.35564],[69.31246,42.35371],[69.3133,42.35232],[69.31577,42.35221],[69.31991,42.35395],[69.32311,42.35166],[69.31911,42.34903],[69.30995,42.33695],[69.30329,42.32232],[69.3069,42.32205],[69.3113,42.32317],[69.31318,42.31919],[69.31013,42.31312],[69.32184,42.30976],[69.32614,42.31495],[69.32891,42.31637],[69.33675,42.31693],[69.34248,42.32344],[69.34304,42.32105],[69.34629,42.31664],[69.35219,42.30511],[69.35321,42.27899],[69.3632,42.26068],[69.36097,42.25918],[69.37018,42.24942],[69.33667,42.22916],[69.38325,42.2244],[69.39554,42.22018],[69.41725,42.19102],[69.42564,42.16684],[69.44108,42.15453],[69.44501,42.15168],[69.45335,42.1487],[69.45513,42.14714],[69.46324,42.14553],[69.47546,42.14626],[69.47767,42.13867],[69.48261,42.13934],[69.48012,42.12537],[69.48582,42.1246],[69.48546,42.12193],[69.49045,42.12227],[69.49041,42.12454],[69.51334,42.1241],[69.51793,42.13637],[69.53367,42.13694],[69.53576,42.13592],[69.53605,42.13437],[69.53752,42.13354],[69.53824,42.132],[69.53741,42.13122],[69.54003,42.12782],[69.53842,42.12416],[69.53912,42.12361],[69.53851,42.12314],[69.53985,42.12258],[69.53872,42.12134],[69.53887,42.11747],[69.53784,42.11724],[69.53527,42.11195],[69.53762,42.10902],[69.54064,42.11763],[69.54128,42.1233],[69.54829,42.13274],[69.55448,42.13254],[69.55785,42.13105],[69.5682,42.13243],[69.57095,42.13887],[69.57677,42.13879],[69.60092,42.13006],[69.61187,42.12788],[69.61373,42.13186],[69.61924,42.13461],[69.6201,42.13702],[69.62,42.13877],[69.61796,42.14169],[69.61491,42.14322],[69.6107,42.14377],[69.60884,42.14575],[69.61623,42.16021],[69.63027,42.15925],[69.63516,42.1612],[69.64101,42.1613],[69.6435,42.15801],[69.65058,42.15319],[69.65139,42.1544],[69.64934,42.15584],[69.64848,42.15794],[69.65425,42.15979],[69.64782,42.15956],[69.64852,42.16328],[69.64728,42.16404],[69.65375,42.17448],[69.64566,42.17202],[69.64676,42.17374],[69.65067,42.17485],[69.65158,42.17614],[69.65508,42.19065],[69.65839,42.19882],[69.66852,42.19799],[69.69162,42.19235],[69.69671,42.20638],[69.71089,42.22857],[69.72013,42.22637],[69.72175,42.22975],[69.73163,42.22871],[69.73211,42.23106],[69.75756,42.23134],[69.75936,42.23244],[69.75827,42.22852],[69.7618,42.22743],[69.75758,42.22026],[69.75393,42.21073],[69.75533,42.21047],[69.75226,42.20237],[69.75303,42.199],[69.75463,42.1986],[69.75705,42.19123],[69.75853,42.191],[69.76033,42.19332],[69.76101,42.19757],[69.76698,42.20133],[69.76883,42.20148],[69.77205,42.20473],[69.77246,42.20653],[69.77796,42.2083],[69.78486,42.21445],[69.7891,42.2115],[69.78381,42.20431],[69.78213,42.19762],[69.78897,42.19539],[69.79366,42.20232],[69.79473,42.20265],[69.80259,42.19297],[69.80642,42.19431],[69.81144,42.19213],[69.81386,42.19321],[69.82233,42.1926],[69.82087,42.19404],[69.82378,42.19471],[69.82489,42.19959],[69.82053,42.19597],[69.82072,42.19977],[69.81766,42.19562],[69.81749,42.19743],[69.81562,42.19943],[69.81636,42.20111],[69.81355,42.19959],[69.81277,42.20406],[69.81141,42.20389],[69.81129,42.20474],[69.81365,42.21159],[69.81302,42.21247],[69.81961,42.21074],[69.82675,42.21384],[69.83154,42.21155],[69.83695,42.21033],[69.83748,42.21389],[69.83235,42.21507],[69.82935,42.21966],[69.82645,42.22106],[69.82489,42.22467],[69.82588,42.22714],[69.82534,42.22872],[69.82108,42.2307],[69.81277,42.24011],[69.80936,42.24596],[69.80266,42.24912],[69.81212,42.25432],[69.82603,42.26686],[69.82882,42.26668],[69.83014,42.26491],[69.83266,42.26587],[69.83296,42.26022],[69.83483,42.26139],[69.83391,42.26302],[69.83538,42.26439],[69.83815,42.26289],[69.83856,42.26392],[69.83771,42.26505],[69.83843,42.26563],[69.84509,42.26591],[69.84613,42.26415],[69.85007,42.26654],[69.86548,42.26806],[69.86721,42.27172],[69.86996,42.27277],[69.87409,42.27855],[69.87812,42.28091],[69.87972,42.28488],[69.88319,42.28654],[69.88685,42.28658],[69.88849,42.28443],[69.89604,42.28206],[69.90199,42.28173],[69.9022,42.28072],[69.9053,42.28032],[69.9055,42.2788],[69.90892,42.27814]]]}}